#dP2018  9 19  0  0  0.00000000      96 __u+U ITR00 FIT  IAC
## 2019 259200.00000000   900.00000000 58380 0.0000000000000
+   89   C01C02C03C05C06C07C08C09C10C11C12C13C14E01E02E03E04
+        E05E07E08E09E11E12E14E18E19E21E24E25E26E27E30G01G02
+        G03G05G06G07G08G09G10G11G12G13G14G15G16G17G18G19G20
+        G21G22G23G24G25G26G27G28G29G30G31G32J01J02J03R01R02
+        R03R04R05R07R08R09R10R11R13R14R15R16R17R18R19R20R21
+        R22R23R24R26  0  0  0  0  0  0  0  0  0  0  0  0  0
++        11 11 12 11  9  8  8  8  8  8  8  8  8  6  7  7  7
++         6  6  7  6  6  6  6  6  6  7  6  7  6  6  6  3  3
++         3  3  3  3  3  4  3  3  3  3  3  3  3  3  3  3  3
++         3  3  3  3  3  3  3  3  3  3  3  3  0  9 10  5  5
++         8  5  5  5  5  6  6  5  5  5  6  5  5  6  5  6  5
++         5  5  5  9  0  0  0  0  0  0  0  0  0  0  0  0  0
%c M  cc GPS ccc cccc cccc cccc cccc ccccc ccccc ccccc ccccc
%c cc cc ccc ccc cccc cccc cccc cccc ccccc ccccc ccccc ccccc
%f  0.0000000  0.000000000  0.00000000000  0.000000000000000
%f  0.0000000  0.000000000  0.00000000000  0.000000000000000
%i    0    0    0    0      0      0      0      0         0
%i    0    0    0    0      0      0      0      0         0
/* INFORMATION & ANALYSIS CENTER (IAC) OF MCC   (RAPID DATA)
/* S/V CLOCKS ARE ALIGNED TO GPS & GLONASS TIME RESPECTIVELY
/* USING THE BROADCAST EPHEMERIS                            
/* PCV:IGS14_2000 OL/AL:FES2004  NONE     YN ORB:CoN CLK:CoN
*  2018 09 19 10 30  0.00000000
PC01 -32347.424232  27046.734021  -1023.880937    -32.323774
PC02   4346.835519  41916.191317    376.643278     34.418748
PC03 -14720.274509  39500.138874   -891.728072   -412.320137
PC05  21933.382973  36014.835148    614.472061    144.854976
PC06 -10155.646214  22876.884087  34235.150090    308.762359
PC07 -23582.060864  29877.732443 -18508.753057      6.875863
PC08 -11859.497285  36661.263701 -16733.225168    531.638943
PC09   5412.946255  29877.139364  29568.914596    127.122287
PC10 -11253.832365  30464.201817 -26942.639307    -85.298765
PC11 -13457.546647   7451.290476 -23228.547013   -687.206374
PC12 -18783.912466 -12884.362186 -16135.920443    616.886842
PC13  -2732.415757  41874.716184  -2279.939165   -285.246984
PC14 -25099.693453   6382.748817  10384.280997    427.516569
PE01  20885.084163 -20126.454451   5885.779620   -438.111563
PE02 -20877.940171  20135.538447  -5902.095661     28.019369
PE03 -14040.892106  11831.486020  23222.601974    -78.818462
PE04  -7082.871160 -19513.603728 -21095.396857   -120.472730
PE05 -27025.345283  -2818.709254  11747.633521    191.279112
PE07  24158.054712  15783.364431   6576.726725    -41.132112
PE08   7324.612184  19336.004452  21180.757385   6499.747426
PE09 -24328.688192 -15528.544072  -6600.486151   6672.271689
PE11 -13976.157685 -19606.843393 -17220.126601   5190.185062
PE12  -3045.635115 -29429.771816    710.196485   5087.063325
PE14 -20585.356235   5840.673910 -23750.493386   6517.293882
PE18  18735.734987   3046.798741  15368.015498   5895.265719
PE19  15748.709726 -10528.944683 -22740.409775    -12.107054
PE21  25248.992207  -7806.845388 -13313.532212   -495.398836
PE24 -15115.441752  -8509.591806  23981.364580   6485.140134
PE25 -25260.248676   7788.638892  13346.574356   2037.765962
PE26  16532.351168  -1263.230823  24517.050517   5460.203001
PE27  14524.259243   8963.342521 -24172.811150    628.053759
PE30  -4112.817502  20256.839027 -21188.848425   5500.810330
PG01  13554.871715 -19961.875750  10585.210268    -89.967252
PG02 -15392.024783   -100.029146 -21053.498282     -6.108406
PG03  19288.798834 -13451.382625 -12314.732516    138.258132
PG05 -25855.574893   2163.088514  -6300.144248     -1.815258
PG06  -8536.490830 -16621.952663 -18840.208978    361.519532
PG07   4977.294257 -25538.992884   4127.794604    121.484559
PG08  17316.847109  -2007.078962  20128.459847   -115.664816
PG09   -171.734639 -19045.689786 -18539.592670    505.637740
PG10  10125.645656  12679.250558  21098.952280    180.952831
PG11  11020.362905 -16748.076542  16958.799645   -716.812135
PG12 -23118.853838   9777.417943  -8597.036247    305.847070
PG13 -19412.562532  -6896.125658  16665.010440    -88.860496
PG14  18679.242752  18510.758179  -4043.345534    -97.221559
PG15 -14937.990660   7306.976447  20542.599679   -345.481273
PG16  25576.090685   1406.039496  -7961.380705      8.293525
PG17 -14010.015065 -22040.120109   5573.295970    -54.015860
PG18  15608.370723 -12288.728863  17075.613407     58.971686
PG19 -18703.623382 -18026.856021  -5483.714548   -401.305892
PG20   -253.968480  16514.008876  20662.427350    516.036383
PG21   -242.161839  25607.094188   7933.041800   -334.638761
PG22  23798.094891 -10802.953766  -4409.676733   -523.504709
PG23   8941.496194 -12784.659402 -21162.483591   -210.541150
PG24 -14750.776497  16681.689951  14125.634498    -55.582518
PG25 -11557.042662  15514.942754 -18272.163792   -649.282850
PG26  20070.960955   6590.959481 -16190.401292    -15.728611
PG27  21124.009703   8810.898996  13612.497531    343.430880
PG28  -6361.409820 -13995.952071  22277.425578    745.282011
PG29  -1443.646232  18215.281164 -19299.985326    373.488915
PG30  -2516.096747 -22627.391774  13556.284490     21.949291
PG31   9898.665382  14327.099861 -19897.717623     92.534502
PG32  15899.277479  20897.559942   4357.657054   -419.178589
PJ01      0.000000      0.000000      0.000000 999999.999999
PJ02 -33267.657934  25012.608110  10727.244227      0.020698
PJ03 -22704.179021  19094.277207 -25357.484230      0.078966
PR01   2142.635777 -10889.930049 -22966.466749     32.215317
PR02 -17975.298251 -11098.124446 -14222.999273    330.369734
PR03 -24954.756411  -4420.198901   2732.258849    143.642382
PR04 -16993.880752   5061.828965  18344.287368    276.761466
PR05    178.218763  11103.390103  22973.134535     11.004377
PR07  24973.260598   4280.610706  -3073.116970    -47.458594
PR08  17588.375008  -4647.163794 -17833.094198     21.234674
PR09   6203.319330   9518.597350 -22824.022633     29.160352
PR10  16683.980650  -5014.236410 -18606.367422     31.955988
PR11  18358.951550 -17441.004205  -2813.558780    -41.339126
PR13  -5811.277360  -9580.161081  22904.010222    -14.843438
PR14 -16820.105074   4971.941231  18548.729769     31.146425
PR15 -19117.435695  15162.447288   7287.384062    -16.552977
PR16  -9299.688079  19639.166937 -13285.637186    102.003193
PR17 -12420.032133  -8105.758134 -20762.522837    165.446120
PR18  -7547.463400  10055.115139 -22194.829715     24.921881
PR19   1007.320437  22805.260071 -11378.394853    -59.642824
PR20   9712.671044  22367.690714   7554.358040   -352.778958
PR21  12298.442435   7604.551273  21000.028210     -4.281388
PR22   6589.237462 -12027.546198  21477.833191    -62.839123
PR23  -3698.415169 -24148.999649   7336.256993    179.185248
PR24 -10510.531554 -21546.845192  -8736.291685   -171.558505
PR26   9723.184059  22725.255183   6244.487590     48.192845
EOF
